ALOS-2                  
1 39766U 14029A   26083.53021620  .00001862  00000+0  25640-3 0  9991
2 39766  97.9187 181.9115 0001818 106.3027 253.8384 14.79431084639065
YAOGAN-29               
1 41038U 15069A   26083.50332484  .00001016  00000+0  13167-3 0  9993
2 41038  98.0119 111.9711 0000835  12.2493 347.8740 14.83012845558078
ASTRO-H (HITOMI)        
1 41337U 16012A   26083.50673860  .00002907  00000+0  16834-3 0  9994
2 41337  30.9988 260.9233 0009599 120.5372 239.6214 15.10094818554473
HXMT (HUIYAN)           
1 42758U 17034A   26083.52098755  .00005120  00000+0  25804-3 0  9990
2 42758  43.0145 294.2061 0032474 326.3827  33.4961 15.17651305484792
SAOCOM 1A               
1 43641U 18076A   26083.47782069  .00000703  00000+0  94837-4 0  9996
2 43641  97.8900 271.4414 0001452  88.5370 271.6010 14.82156455403554
H-2A R/B                
1 43682U 18084L   26083.33660858  .00018828  00000+0  43984-3 0  9999
2 43682  98.8706 303.8610 0024146 334.6064  25.3990 15.41959478408033
SAOCOM 1B               
1 46265U 20059A   26083.50904544  .00000023  00000+0  94793-5 0  9990
2 46265  97.8901 270.5702 0001490  86.2210 273.9174 14.82150587300945
CSS (TIANHE)            
1 48274U 21035A   26083.49395739  .00019397  00000+0  22400-3 0  9993
2 48274  41.4663 118.0307 0004758  10.7895 349.3045 15.61427580279921
COSMOS 2550             
1 48865U 21056A   26079.66782363 -.00000188  00000+0  12540-6 0  9995
2 48865  67.1449   7.6743 0008200 268.9234  91.0981 15.33831865265144
CZ-2C R/B               
1 52794U 22058K   26083.16603807  .00030792  00000+0  43415-3 0  9994
2 52794  50.1878 243.7627 0041635 262.6993  96.9245 15.55264976212386
CZ-2C R/B               
1 54039U 22132E   26082.97340210  .00046290  00000+0  50219-3 0  9995
2 54039  97.2964  86.7380 0018708  45.7338 314.5452 15.63169879192603
GSLV R/B                
1 54149U 22138AN  26083.49541050  .00003256  00000+0  27994-3 0  9995
2 54149  87.3866 161.4065 0024109  97.6350 262.7621 14.96870505186143
