CCSDS_OMM_VERS = 2.0
CREATION_DATE  = 
ORIGINATOR     = 

OBJECT_NAME    = ALOS-2
OBJECT_ID      = 2014-029A
CENTER_NAME    = EARTH
REF_FRAME      = TEME
TIME_SYSTEM    = UTC
MEAN_ELEMENT_THEORY = SGP/SGP4

EPOCH          = 2026-03-24T12:43:30.679680
MEAN_MOTION    = 14.79431084
ECCENTRICITY   = .0001818
INCLINATION    = 97.9187
RA_OF_ASC_NODE = 181.9115
ARG_OF_PERICENTER = 106.3027
MEAN_ANOMALY   = 253.8384

EPHEMERIS_TYPE = 0
CLASSIFICATION_TYPE = U
NORAD_CAT_ID   = 39766
ELEMENT_SET_NO = 999
REV_AT_EPOCH   = 63906
BSTAR          = .2564E-3
MEAN_MOTION_DOT = .1862E-4
MEAN_MOTION_DDOT = 0

CCSDS_OMM_VERS = 2.0
CREATION_DATE  = 
ORIGINATOR     = 

OBJECT_NAME    = YAOGAN-29
OBJECT_ID      = 2015-069A
CENTER_NAME    = EARTH
REF_FRAME      = TEME
TIME_SYSTEM    = UTC
MEAN_ELEMENT_THEORY = SGP/SGP4

EPOCH          = 2026-03-24T12:04:47.266176
MEAN_MOTION    = 14.83012845
ECCENTRICITY   = .0000835
INCLINATION    = 98.0119
RA_OF_ASC_NODE = 111.9711
ARG_OF_PERICENTER = 12.2493
MEAN_ANOMALY   = 347.8740

EPHEMERIS_TYPE = 0
CLASSIFICATION_TYPE = U
NORAD_CAT_ID   = 41038
ELEMENT_SET_NO = 999
REV_AT_EPOCH   = 55807
BSTAR          = .13167E-3
MEAN_MOTION_DOT = .1016E-4
MEAN_MOTION_DDOT = 0

CCSDS_OMM_VERS = 2.0
CREATION_DATE  = 
ORIGINATOR     = 

OBJECT_NAME    = ASTRO-H (HITOMI)
OBJECT_ID      = 2016-012A
CENTER_NAME    = EARTH
REF_FRAME      = TEME
TIME_SYSTEM    = UTC
MEAN_ELEMENT_THEORY = SGP/SGP4

EPOCH          = 2026-03-24T12:09:42.215040
MEAN_MOTION    = 15.10094818
ECCENTRICITY   = .0009599
INCLINATION    = 30.9988
RA_OF_ASC_NODE = 260.9233
ARG_OF_PERICENTER = 120.5372
MEAN_ANOMALY   = 239.6214

EPHEMERIS_TYPE = 0
CLASSIFICATION_TYPE = U
NORAD_CAT_ID   = 41337
ELEMENT_SET_NO = 999
REV_AT_EPOCH   = 55447
BSTAR          = .16834E-3
MEAN_MOTION_DOT = .2907E-4
MEAN_MOTION_DDOT = 0

CCSDS_OMM_VERS = 2.0
CREATION_DATE  = 
ORIGINATOR     = 

OBJECT_NAME    = HXMT (HUIYAN)
OBJECT_ID      = 2017-034A
CENTER_NAME    = EARTH
REF_FRAME      = TEME
TIME_SYSTEM    = UTC
MEAN_ELEMENT_THEORY = SGP/SGP4

EPOCH          = 2026-03-24T12:30:13.324320
MEAN_MOTION    = 15.17651305
ECCENTRICITY   = .0032474
INCLINATION    = 43.0145
RA_OF_ASC_NODE = 294.2061
ARG_OF_PERICENTER = 326.3827
MEAN_ANOMALY   = 33.4961

EPHEMERIS_TYPE = 0
CLASSIFICATION_TYPE = U
NORAD_CAT_ID   = 42758
ELEMENT_SET_NO = 999
REV_AT_EPOCH   = 48479
BSTAR          = .25804E-3
MEAN_MOTION_DOT = .512E-4
MEAN_MOTION_DDOT = 0

CCSDS_OMM_VERS = 2.0
CREATION_DATE  = 
ORIGINATOR     = 

OBJECT_NAME    = SAOCOM 1A
OBJECT_ID      = 2018-076A
CENTER_NAME    = EARTH
REF_FRAME      = TEME
TIME_SYSTEM    = UTC
MEAN_ELEMENT_THEORY = SGP/SGP4

EPOCH          = 2026-03-24T11:28:03.707616
MEAN_MOTION    = 14.82156455
ECCENTRICITY   = .0001452
INCLINATION    = 97.8900
RA_OF_ASC_NODE = 271.4414
ARG_OF_PERICENTER = 88.5370
MEAN_ANOMALY   = 271.6010

EPHEMERIS_TYPE = 0
CLASSIFICATION_TYPE = U
NORAD_CAT_ID   = 43641
ELEMENT_SET_NO = 999
REV_AT_EPOCH   = 40355
BSTAR          = .94837E-4
MEAN_MOTION_DOT = .703E-5
MEAN_MOTION_DDOT = 0

CCSDS_OMM_VERS = 2.0
CREATION_DATE  = 
ORIGINATOR     = 

OBJECT_NAME    = H-2A R/B
OBJECT_ID      = 2018-084L
CENTER_NAME    = EARTH
REF_FRAME      = TEME
TIME_SYSTEM    = UTC
MEAN_ELEMENT_THEORY = SGP/SGP4

EPOCH          = 2026-03-24T08:04:42.981312
MEAN_MOTION    = 15.41959478
ECCENTRICITY   = .0024146
INCLINATION    = 98.8706
RA_OF_ASC_NODE = 303.8610
ARG_OF_PERICENTER = 334.6064
MEAN_ANOMALY   = 25.3990

EPHEMERIS_TYPE = 0
CLASSIFICATION_TYPE = U
NORAD_CAT_ID   = 43682
ELEMENT_SET_NO = 999
REV_AT_EPOCH   = 40803
BSTAR          = .43984E-3
MEAN_MOTION_DOT = .18828E-3
MEAN_MOTION_DDOT = 0

CCSDS_OMM_VERS = 2.0
CREATION_DATE  = 
ORIGINATOR     = 

OBJECT_NAME    = SAOCOM 1B
OBJECT_ID      = 2020-059A
CENTER_NAME    = EARTH
REF_FRAME      = TEME
TIME_SYSTEM    = UTC
MEAN_ELEMENT_THEORY = SGP/SGP4

EPOCH          = 2026-03-24T12:13:01.526016
MEAN_MOTION    = 14.82150587
ECCENTRICITY   = .000149
INCLINATION    = 97.8901
RA_OF_ASC_NODE = 270.5702
ARG_OF_PERICENTER = 86.2210
MEAN_ANOMALY   = 273.9174

EPHEMERIS_TYPE = 0
CLASSIFICATION_TYPE = U
NORAD_CAT_ID   = 46265
ELEMENT_SET_NO = 999
REV_AT_EPOCH   = 30094
BSTAR          = .94793E-5
MEAN_MOTION_DOT = .23E-6
MEAN_MOTION_DDOT = 0

CCSDS_OMM_VERS = 2.0
CREATION_DATE  = 
ORIGINATOR     = 

OBJECT_NAME    = CSS (TIANHE)
OBJECT_ID      = 2021-035A
CENTER_NAME    = EARTH
REF_FRAME      = TEME
TIME_SYSTEM    = UTC
MEAN_ELEMENT_THEORY = SGP/SGP4

EPOCH          = 2026-03-24T11:51:17.918496
MEAN_MOTION    = 15.61427580
ECCENTRICITY   = .0004758
INCLINATION    = 41.4663
RA_OF_ASC_NODE = 118.0307
ARG_OF_PERICENTER = 10.7895
MEAN_ANOMALY   = 349.3045

EPHEMERIS_TYPE = 0
CLASSIFICATION_TYPE = U
NORAD_CAT_ID   = 48274
ELEMENT_SET_NO = 999
REV_AT_EPOCH   = 27992
BSTAR          = .224E-3
MEAN_MOTION_DOT = .19397E-3
MEAN_MOTION_DDOT = 0

CCSDS_OMM_VERS = 2.0
CREATION_DATE  = 
ORIGINATOR     = 

OBJECT_NAME    = COSMOS 2550
OBJECT_ID      = 2021-056A
CENTER_NAME    = EARTH
REF_FRAME      = TEME
TIME_SYSTEM    = UTC
MEAN_ELEMENT_THEORY = SGP/SGP4

EPOCH          = 2026-03-20T16:01:39.961632
MEAN_MOTION    = 15.33831865
ECCENTRICITY   = .00082001
INCLINATION    = 67.1449
RA_OF_ASC_NODE = 7.6743
ARG_OF_PERICENTER = 268.9234
MEAN_ANOMALY   = 91.0981

EPHEMERIS_TYPE = 0
CLASSIFICATION_TYPE = U
NORAD_CAT_ID   = 48865
ELEMENT_SET_NO = 999
REV_AT_EPOCH   = 26514
BSTAR          = .125398E-6
MEAN_MOTION_DOT = -.188E-5
MEAN_MOTION_DDOT = 0

CCSDS_OMM_VERS = 2.0
CREATION_DATE  = 
ORIGINATOR     = 

OBJECT_NAME    = CZ-2C R/B
OBJECT_ID      = 2022-058K
CENTER_NAME    = EARTH
REF_FRAME      = TEME
TIME_SYSTEM    = UTC
MEAN_ELEMENT_THEORY = SGP/SGP4

EPOCH          = 2026-03-24T03:59:05.689248
MEAN_MOTION    = 15.55264976
ECCENTRICITY   = .00416351
INCLINATION    = 50.1878
RA_OF_ASC_NODE = 243.7627
ARG_OF_PERICENTER = 262.6993
MEAN_ANOMALY   = 96.9245

EPHEMERIS_TYPE = 0
CLASSIFICATION_TYPE = U
NORAD_CAT_ID   = 52794
ELEMENT_SET_NO = 999
REV_AT_EPOCH   = 21238
BSTAR          = .43415476E-3
MEAN_MOTION_DOT = .30792E-3
MEAN_MOTION_DDOT = 0

CCSDS_OMM_VERS = 2.0
CREATION_DATE  = 
ORIGINATOR     = 

OBJECT_NAME    = CZ-2C R/B
OBJECT_ID      = 2022-132E
CENTER_NAME    = EARTH
REF_FRAME      = TEME
TIME_SYSTEM    = UTC
MEAN_ELEMENT_THEORY = SGP/SGP4

EPOCH          = 2026-03-23T23:21:41.941440
MEAN_MOTION    = 15.63169879
ECCENTRICITY   = .00187086
INCLINATION    = 97.2964
RA_OF_ASC_NODE = 86.7380
ARG_OF_PERICENTER = 45.7338
MEAN_ANOMALY   = 314.5452

EPHEMERIS_TYPE = 0
CLASSIFICATION_TYPE = U
NORAD_CAT_ID   = 54039
ELEMENT_SET_NO = 999
REV_AT_EPOCH   = 19260
BSTAR          = .50219048E-3
MEAN_MOTION_DOT = .4629E-3
MEAN_MOTION_DDOT = 0

CCSDS_OMM_VERS = 2.0
CREATION_DATE  = 
ORIGINATOR     = 

OBJECT_NAME    = GSLV R/B
OBJECT_ID      = 2022-138AN
CENTER_NAME    = EARTH
REF_FRAME      = TEME
TIME_SYSTEM    = UTC
MEAN_ELEMENT_THEORY = SGP/SGP4

EPOCH          = 2026-03-24T11:53:23.467200
MEAN_MOTION    = 14.96870505
ECCENTRICITY   = .0024109
INCLINATION    = 87.3866
RA_OF_ASC_NODE = 161.4065
ARG_OF_PERICENTER = 97.6350
MEAN_ANOMALY   = 262.7621

EPHEMERIS_TYPE = 0
CLASSIFICATION_TYPE = U
NORAD_CAT_ID   = 54149
ELEMENT_SET_NO = 999
REV_AT_EPOCH   = 18614
BSTAR          = .27994E-3
MEAN_MOTION_DOT = .3256E-4
MEAN_MOTION_DDOT = 0

